NORAD_CAT_ID,OBJECT_NAME,OBJECT_TYPE,EPOCH,MEAN_MOTION,ECCENTRICITY,INCLINATION,RA_OF_ASC_NODE,ARG_OF_PERICENTER,MEAN_ANOMALY,BSTAR,MEAN_MOTION_DOT,MEAN_MOTION_DDOT,TLE_LINE0,TLE_LINE1,TLE_LINE2,SEMIMAJOR_AXIS,PERIOD,APOGEE,PERIGEE,DECAYED
52832.0,STARLINK-4083,PAYLOAD,2022-10-12 22:00:00,15.08854105,0.0001743,53.2174,217.6271,46.9587,316.2192,-0.0016554,-0.00026548,0.0,0 STARLINK-4083,1 52832U 22062C   22285.91667824 -.00026548  00000-0 -16554-2 0  9994,2 52832  53.2174 217.6271 0001743  46.9587 316.2192 15.08854105 18509,6917.837,95.437,540.908,538.496,0.0
52832.0,STARLINK-4083,PAYLOAD,2022-10-13 14:00:01,15.08895847,0.000171,53.2175,214.6349,52.7921,333.5431,-0.0051623,-0.00081641,0.0,0 STARLINK-4083,1 52832U 22062C   22286.58334491 -.00081641  00000-0 -51623-2 0  9990,2 52832  53.2175 214.6349 0001710  52.7921 333.5431 15.08895847  1300,6917.71,95.434,540.758,538.3919999999998,0.0
52832.0,STARLINK-4083,PAYLOAD,2022-10-13 20:00:01,15.08836338,0.0001781,53.2176,213.5122,58.1405,246.9879,0.00010478,1.3800000000000008e-05,0.0,0 STARLINK-4083,1 52832U 22062C   22286.83335648  .00001380  00000-0  10478-3 0  9997,2 52832  53.2176 213.5122 0001781  58.1405 246.9879 15.08836338 18641,6917.892,95.438,540.989,538.525,0.0
52832.0,STARLINK-4083,PAYLOAD,2022-10-13 22:00:00,15.08837828,0.0001804,53.2177,213.1387,56.5537,341.409,-0.00011173,-2.066e-05,0.0,0 STARLINK-4083,1 52832U 22062C   22286.91667824 -.00002066  00000-0 -11173-3 0  9997,2 52832  53.2177 213.1387 0001804  56.5537 341.4090 15.08837828  1301,6917.887,95.438,541.0,538.504,0.0
52832.0,STARLINK-4083,PAYLOAD,2022-10-14 14:00:01,15.08804252,0.0001551,53.2174,210.1456,50.4529,10.7128,0.0030616,0.00048727,0.0,0 STARLINK-4083,1 52832U 22062C   22287.58334491  .00048727  00000-0  30616-2 0  9996,2 52832  53.2174 210.1456 0001551  50.4529  10.7128 15.08804252  1308,6917.99,95.44,540.928,538.7819999999998,0.0
52832.0,STARLINK-4083,PAYLOAD,2022-10-14 20:00:01,15.08836835,0.0001597,53.2176,209.0231,51.9893,287.8526,4.6698e-05,4.55e-06,0.0,0 STARLINK-4083,1 52832U 22062C   22287.83334491  .00000455  00000-0  46698-4 0  9999,2 52832  53.2176 209.0231 0001597  51.9893 287.8526 15.08836835  1309,6917.89,95.438,540.86,538.65,0.0
52832.0,STARLINK-4083,PAYLOAD,2022-10-15 06:00:00,15.08834767,0.0001641999999999,53.2174,207.1544,48.1324,36.1997,0.00026772,3.975e-05,0.0,0 STARLINK-4083,1 52832U 22062C   22288.25001157  .00003975  00000-0  26772-3 0  9996,2 52832  53.2174 207.1544 0001642  48.1324  36.1997 15.08834767 18858,6917.896,95.438,540.8969999999998,538.625,0.0
52832.0,STARLINK-4083,PAYLOAD,2022-10-15 14:00:01,15.08837186,0.0001488,53.2152,205.656,54.1377,41.807,-0.00013976,-2.511e-05,0.0,0 STARLINK-4083,1 52832U 22062C   22288.58334491 -.00002511  00000-0 -13976-3 0  9991,2 52832  53.2152 205.6560 0001488  54.1377  41.8070 15.08837186  1303,6917.889,95.438,540.783,538.725,0.0
52832.0,STARLINK-4083,PAYLOAD,2022-10-15 22:00:01,15.08854384,0.0001546,53.2152,204.1603,52.3796,55.2037,-0.0027166,-0.0004328,0.0,0 STARLINK-4083,1 52832U 22062C   22288.91668981 -.00043280  00000-0 -27166-2 0  9995,2 52832  53.2152 204.1603 0001546  52.3796  55.2037 15.08854384  1306,6917.8359999999975,95.437,540.771,538.632,0.0
52832.0,STARLINK-4083,PAYLOAD,2022-10-16 14:00:01,15.0878589,0.0001506,53.2155,201.167,52.0669,78.6254,0.0026273,0.00041711,0.0,0 STARLINK-4083,1 52832U 22062C   22289.58334491  .00041711  00000-0  26273-2 0  9998,2 52832  53.2155 201.1670 0001506  52.0669  78.6254 15.08785890 19069,6918.045999999999,95.441,540.953,538.869,0.0
52832.0,STARLINK-4083,PAYLOAD,2022-10-16 22:00:00,15.08834332,0.000167,53.2159,199.6714,53.8107,88.4335,-0.00039418,-6.555e-05,0.0,0 STARLINK-4083,1 52832U 22062C   22289.91667824 -.00006555  00000-0 -39418-3 0  9999,2 52832  53.2159 199.6714 0001670  53.8107  88.4335 15.08834332  1304,6917.898,95.438,540.918,538.607,0.0
52832.0,STARLINK-4083,PAYLOAD,2022-10-17 14:00:01,15.08832181,0.0001618,53.2159,196.6776,53.859,111.5653,0.0037538,0.00059949,0.0,0 STARLINK-4083,1 52832U 22062C   22290.58334491  .00059949  00000-0  37538-2 0  9998,2 52832  53.2159 196.6776 0001618  53.8590 111.5653 15.08832181  1308,6917.904,95.438,540.889,538.65,0.0
52832.0,STARLINK-4083,PAYLOAD,2022-10-17 22:00:00,15.08907629,0.0001668,53.2166,195.182,53.6674,123.3626,-0.0060872,-0.00096054,0.0,0 STARLINK-4083,1 52832U 22062C   22290.91667824 -.00096054  00000-0 -60872-2 0  9991,2 52832  53.2166 195.1820 0001668  53.6674 123.3626 15.08907629  1307,6917.674,95.433,540.693,538.385,0.0
52832.0,STARLINK-4083,PAYLOAD,2022-10-18 08:00:01,15.08844899,0.0001715,53.2159,193.3119,45.5679,235.9702,-0.00392,-0.00062146,0.0,0 STARLINK-4083,1 52832U 22062C   22291.33334491 -.00062146  00000-0 -39200-2 0  9995,2 52832  53.2159 193.3119 0001715  45.5679 235.9702 15.08844899 19323,6917.865,95.437,540.9169999999998,538.544,0.0
52832.0,STARLINK-4083,PAYLOAD,2022-10-18 14:00:01,15.08782087,0.000161,53.2161,192.1884,51.9293,148.303,0.0034506,0.0005497,0.0,0 STARLINK-4083,1 52832U 22062C   22291.58334491  .00054970  00000-0  34506-2 0  9990,2 52832  53.2161 192.1884 0001610  51.9293 148.3030 15.08782087  1309,6918.057,95.441,541.036,538.809,0.0
52832.0,STARLINK-4083,PAYLOAD,2022-10-18 22:00:00,15.08828046,0.0001742,53.2163,190.6933,50.7783,161.0014,-0.00060356,-9.878e-05,0.0,0 STARLINK-4083,1 52832U 22062C   22291.91667824 -.00009878  00000-0 -60356-3 0  9998,2 52832  53.2163 190.6933 0001742  50.7783 161.0014 15.08828046 19417,6917.917,95.438,540.987,538.577,0.0
52832.0,STARLINK-4083,PAYLOAD,2022-10-19 14:00:01,15.08820432,0.0001631999999999,53.2163,187.6994,54.1702,180.782,0.0035821999999999,0.00057155,0.0,0 STARLINK-4083,1 52832U 22062C   22292.58334491  .00057155  00000-0  35822-2 0  9991,2 52832  53.2163 187.6994 0001632  54.1702 180.7820 15.08820432  1300,6917.94,95.439,540.934,538.6759999999998,0.0
52832.0,STARLINK-4083,PAYLOAD,2022-10-19 22:00:00,15.0883382,0.0001740999999999,53.2171,186.2042,55.9648,190.5852,0.0061628,0.00099159,0.0,0 STARLINK-4083,1 52832U 22062C   22292.91667824  .00099159  00000-0  61628-2 0  9990,2 52832  53.2171 186.2042 0001741  55.9648 190.5852 15.08833820  1306,6917.899,95.438,540.969,538.56,0.0
52832.0,STARLINK-4083,PAYLOAD,2022-10-20 08:00:01,15.08858711,0.0001702,53.2161,184.3337,49.3073,301.7534,-0.0020172999999999,-0.00032267,0.0,0 STARLINK-4083,1 52832U 22062C   22293.33334491 -.00032267  00000-0 -20173-2 0  9997,2 52832  53.2161 184.3337 0001702  49.3073 301.7534 15.08858711 19620,6917.823,95.436,540.866,538.511,0.0
52832.0,STARLINK-4083,PAYLOAD,2022-10-20 14:00:01,15.08835135,0.0001579,53.2163,183.2102,55.6576,214.1122,0.00052292,8.043e-05,0.0,0 STARLINK-4083,1 52832U 22062C   22293.58334491  .00008043  00000-0  52292-3 0  9995,2 52832  53.2163 183.2102 0001579  55.6576 214.1122 15.08835135  1301,6917.895,95.438,540.8530000000002,538.668,0.0
52832.0,STARLINK-4083,PAYLOAD,2022-10-20 22:00:00,15.08836951,0.0001771999999999,53.2167,181.7157,53.86,227.5086,-0.00063166,-0.00010326,0.0,0 STARLINK-4083,1 52832U 22062C   22293.91667824 -.00010326  00000-0 -63166-3 0  9992,2 52832  53.2167 181.7157 0001772  53.8600 227.5086 15.08836951 19719,6917.89,95.438,540.981,538.529,0.0
52832.0,STARLINK-4083,PAYLOAD,2022-10-21 14:00:01,15.08826253,0.0001656,53.216,178.7212,59.5863,244.9718,0.0030409,0.00048423,0.0,0 STARLINK-4083,1 52832U 22062C   22294.58334491  .00048423  00000-0  30409-2 0  9997,2 52832  53.2160 178.7212 0001656  59.5863 244.9718 15.08826253 19815,6917.922,95.438,540.933,538.6419999999998,0.0
52832.0,STARLINK-4083,PAYLOAD,2022-10-21 22:00:00,15.08855111,0.0001771999999999,53.2158,177.2266,53.9312,262.2346,-0.0024971,-0.00039827,0.0,0 STARLINK-4083,1 52832U 22062C   22294.91667824 -.00039827  00000-0 -24971-2 0  9990,2 52832  53.2158 177.2266 0001772  53.9312 262.2346 15.08855111  1301,6917.834,95.437,540.925,538.4730000000002,0.0
52832.0,STARLINK-4083,PAYLOAD,2022-10-22 08:00:01,15.08865948,0.0001695,53.2156,175.3556,51.8203,8.8329,-0.0041671,-0.00066047,0.0,0 STARLINK-4083,1 52832U 22062C   22295.33334491 -.00066047  00000-0 -41671-2 0  9998,2 52832  53.2156 175.3556 0001695  51.8203   8.8329 15.08865948 19921,6917.801,95.436,540.839,538.494,0.0
52832.0,STARLINK-4083,PAYLOAD,2022-10-22 14:00:01,15.08806774,0.000159,53.2155,174.2324,56.5065,282.8623,0.0026452,0.00042023,0.0,0 STARLINK-4083,1 52832U 22062C   22295.58334491  .00042023  00000-0  26452-2 0  9991,2 52832  53.2155 174.2324 0001590  56.5065 282.8623 15.08806774  1309,6917.982,95.44,540.947,538.747,0.0
52832.0,STARLINK-4083,PAYLOAD,2022-10-22 22:00:00,15.08841492,0.0001736,53.2155,172.7376,51.5615,299.3851,-0.00021436,-3.698e-05,0.0,0 STARLINK-4083,1 52832U 22062C   22295.91667824 -.00003698  00000-0 -21436-3 0  9992,2 52832  53.2155 172.7376 0001736  51.5615 299.3851 15.08841492  1309,6917.876,95.437,540.942,538.54,0.0
52832.0,STARLINK-4083,PAYLOAD,2022-10-23 00:00:02,15.08832266,0.0001773,53.2156,172.3638,50.81100000000001,33.0993,0.001306,0.00020554,0.0,0 STARLINK-4083,1 52832U 22062C   22296.00002315  .00020554  00000-0  13060-2 0  9992,2 52832  53.2156 172.3638 0001773  50.8110  33.0993 15.08832266 20029,6917.904,95.438,540.996,538.5419999999998,0.0
52832.0,STARLINK-4083,PAYLOAD,2022-10-23 14:00:01,15.08845775,0.0001623,53.2154,169.7431,55.7715,318.3941,0.0027375999999999,0.00043557,0.0,0 STARLINK-4083,1 52832U 22062C   22296.58334491  .00043557  00000-0  27376-2 0  9991,2 52832  53.2154 169.7431 0001623  55.7715 318.3941 15.08845775  1308,6917.863,95.437,540.851,538.605,0.0
52832.0,STARLINK-4083,PAYLOAD,2022-10-23 22:00:00,15.08877678,0.0001742,53.2153,168.2483,49.3684,336.4179,-0.0050067,-0.00079177,0.0,0 STARLINK-4083,1 52832U 22062C   22296.91667824 -.00079177  00000-0 -50067-2 0  9999,2 52832  53.2153 168.2483 0001742  49.3684 336.4179 15.08877678  1305,6917.765,95.435,540.835,538.425,0.0
